[{"OBJECT_NAME":"STARLINK-1954","OBJECT_ID":"2021-009H","EPOCH":"2026-03-09T23:20:25.352160","MEAN_MOTION":15.30849174,"ECCENTRICITY":0.00046184,"INCLINATION":53.0574,"RA_OF_ASC_NODE":8.8654,"ARG_OF_PERICENTER":103.3293,"MEAN_ANOMALY":256.8222,"EPHEMERIS_TYPE":0,"CLASSIFICATION_TYPE":"U","NORAD_CAT_ID":47555,"ELEMENT_SET_NO":999,"REV_AT_EPOCH":28100,"BSTAR":0.0022371791,"MEAN_MOTION_DOT":0.00067883,"MEAN_MOTION_DDOT":0},{"OBJECT_NAME":"STARLINK-34542","OBJECT_ID":"2025-224J","EPOCH":"2026-03-09T01:17:23.569728","MEAN_MOTION":15.30194591,"ECCENTRICITY":0.00011041,"INCLINATION":53.162,"RA_OF_ASC_NODE":14.5417,"ARG_OF_PERICENTER":84.9948,"MEAN_ANOMALY":275.1179,"EPHEMERIS_TYPE":0,"CLASSIFICATION_TYPE":"U","NORAD_CAT_ID":65890,"ELEMENT_SET_NO":999,"REV_AT_EPOCH":2477,"BSTAR":0.00055824367,"MEAN_MOTION_DOT":0.00016208,"MEAN_MOTION_DDOT":0}]
